TEVEL2-9                
1 63237U 25052AD  26068.70229538  .00018694  00000+0  67240-3 0  9992
2 63237  97.4057 324.3929 0007990 124.2475 235.9522 15.28633834 54816
STARLINK-34105          
1 63977U 25099AB  26068.28299949  .00037781  00000+0  13746-2 0  9999
2 63977  43.0027 175.0896 0001488 301.6902  58.3804 15.27600260 47220
