[{"OBJECT_NAME":"TEVEL2-9","OBJECT_ID":"2025-052AD","EPOCH":"2026-03-09T16:51:18.321696","MEAN_MOTION":15.28633834,"ECCENTRICITY":0.000799,"INCLINATION":97.4057,"RA_OF_ASC_NODE":324.3929,"ARG_OF_PERICENTER":124.2475,"MEAN_ANOMALY":235.9522,"EPHEMERIS_TYPE":0,"CLASSIFICATION_TYPE":"U","NORAD_CAT_ID":63237,"ELEMENT_SET_NO":999,"REV_AT_EPOCH":5481,"BSTAR":0.00067240159,"MEAN_MOTION_DOT":0.00018694,"MEAN_MOTION_DDOT":0},{"OBJECT_NAME":"STARLINK-34105","OBJECT_ID":"2025-099AB","EPOCH":"2026-03-09T06:47:31.155936","MEAN_MOTION":15.2760026,"ECCENTRICITY":0.00014882,"INCLINATION":43.0027,"RA_OF_ASC_NODE":175.0896,"ARG_OF_PERICENTER":301.6902,"MEAN_ANOMALY":58.3804,"EPHEMERIS_TYPE":0,"CLASSIFICATION_TYPE":"U","NORAD_CAT_ID":63977,"ELEMENT_SET_NO":999,"REV_AT_EPOCH":4722,"BSTAR":0.0013745986,"MEAN_MOTION_DOT":0.00037781,"MEAN_MOTION_DDOT":0}]
